O3B FM20                
1 44112U 19020A   26064.46876809 -.00000027  00000+0  00000+0 0  9998
2 44112   0.0517 359.6814 0002804 332.8765  27.4214  5.00115500126388
O3B FM19                
1 44113U 19020B   26058.89895873 -.00000027  00000+0  00000+0 0  9991
2 44113   0.0602 347.5601 0004795 353.9797  18.4356  5.00116325125971
O3B FM17                
1 44114U 19020C   26064.37605391 -.00000027  00000+0  00000+0 0  9996
2 44114   0.0393 340.1862 0002685 359.0551  20.7418  5.00115476126330
O3B FM18                
1 44115U 19020D   26062.52332968 -.00000028  00000+0  00000+0 0  9990
2 44115   0.0519   0.0145 0002751 341.7220  18.2467  5.00115242126362
SALSAT                  
1 46495U 20068K   26064.54776748  .00011945  00000+0  43846-3 0  9997
2 46495  97.8852  61.4374 0008579 314.2144  45.8389 15.28084035299522
O3B MPOWER F1           
1 54755U 22174A   26064.67821962 -.00000027  00000+0  00000+0 0  9999
2 54755   0.0640 350.9077 0005187  10.1156 139.9725  5.00103107 60182
O3B MPOWER F2           
1 54756U 22174B   26062.53384886 -.00000028  00000+0  00000+0 0  9993
2 54756   0.1272 326.2177 0046125  76.0907 318.0389  5.00690325 60150
O3B MPOWER F4           
1 56367U 23059A   26048.24074746 -.00000015  00000+0  00000+0 0  9995
2 56367   0.0593   7.9241 0006460 334.3658  17.6828  5.00119607 52601
